#aV2022  5 30  0  0  0.00000000     288 DD+AD WGS84 FIT  NGA
## 2212  86400.00000000   300.00000000 59729 0.0000000000000
+   32     1  2  3  4  5  6  7  8  9 10 11 12 13 14 15 16 17
+         18 19 20 21 22 23 24 25 26 27 28 29 30 31 32  0  0
+          0  0  0  0  0  0  0  0  0  0  0  0  0  0  0  0  0
+          0  0  0  0  0  0  0  0  0  0  0  0  0  0  0  0  0
+          0  0  0  0  0  0  0  0  0  0  0  0  0  0  0  0  0
++         2  2  2  2  2  2  2  2  2  2  2  2  2  2  2  2  2
++         2  2  2  2  2  2  2  2  2  2  2  2  2  2  2  0  0
++         0  0  0  0  0  0  0  0  0  0  0  0  0  0  0  0  0
++         0  0  0  0  0  0  0  0  0  0  0  0  0  0  0  0  0
++         0  0  0  0  0  0  0  0  0  0  0  0  0  0  0  0  0
%c cc cc ccc ccc cccc cccc cccc cccc ccccc ccccc ccccc ccccc
%c cc cc ccc ccc cccc cccc cccc cccc ccccc ccccc ccccc ccccc
%f  0.0000000  0.000000000  0.00000000000  0.000000000000000
%f  0.0000000  0.000000000  0.00000000000  0.000000000000000
%i    0    0    0    0      0      0      0      0         0
%i    0    0    0    0      0      0      0      0         0
/*      NGA, ST. LOUIS,MO.                                  
/*   EPHEMERIS COMPUTED FROM 2 DAYS OF DATA                 
/*   EPOCHA v7 SMOOTHER                                     
/*   G2139 IERS2010 SATIGS SATAPC                           
*  2022  5 30 19 20  0.00000000
P  1  22466.512163  14501.804358  -1162.509536    351.675272                    
V  1  -1786.132879    843.543902 -32066.516321     -0.080812                    
P  2  -6657.030584 -17891.089231  19056.400597   -653.047890                    
V  2  21140.701111   8871.192199  16427.639193      0.002253                    
P  3  12548.560434  14096.574419  18624.514327   -262.503838                    
V  3  -1401.404662  23794.583882 -16850.701523     -0.127180                    
P  4  17898.885530   5518.555163  18874.535965   -162.144581                    
V  4 -20558.804781  12295.078597  15824.208464      0.038210                    
P  5  -6098.313361 -24704.921021  -7504.423589    -83.743238                    
V  5   2402.775842  -9433.657308  29911.848625     -0.013629                    
P  6   9072.626974 -11624.243853  22156.172249    323.856577                    
V  6  23934.855342  14341.204214  -2205.155773      0.150789                    
P  7  23095.804509   3105.115223 -12784.272656    322.181638                    
V  7  13207.654635  10510.379759  25112.659497     -0.001278                    
P  8  10410.231798  11358.492275 -21702.715493    -70.127776                    
V  8 -23466.628983  14185.744069  -3492.982734     -0.015928                    
P  9  23414.252530  -4191.368766  11781.110513   -332.570497                    
V  9 -11650.560053   9883.806599  26494.574411      0.031392                    
P 10 -11583.825854  16550.706812 -16940.119577   -435.162591                    
V 10  -1638.182547 -21885.858445 -20373.076132     -0.154861                    
P 11  -5231.655949 -18645.089698  18180.560433    -19.178873                    
V 11  20067.523255  11505.867627  17551.780428      0.036572                    
P 12  -9660.902933 -18568.057191  16149.422318   -223.536412                    
V 12   3345.716948 -20745.254726 -21386.848235     -0.058378                    
P 13     86.956044 -15897.239446 -21401.246169    321.007380                    
V 13  25139.871616  -9388.080166   7296.641447      0.068510                    
P 14  13084.654267 -15122.888439 -17434.905848   -110.279694                    
V 14    871.130454  22256.454664 -18743.861768     -0.011757                    
P 15 -12650.971850 -10412.715351 -21351.605823    -57.121990                    
V 15  20759.743292 -16061.016282  -4243.685123      0.030133                    
P 16   -173.238413  26121.683253  -3418.023267   -505.205409                    
V 16  -3259.011531   3761.303922  31851.825628     -0.029986                    
P 17  22010.787125 -14283.658212   4709.671759    619.047713                    
V 17   5796.546995   -477.369989 -31373.950591      0.045869                    
P 18 -22854.566409  -3468.691179 -13190.770501    155.924156                    
V 18 -13212.000024 -10339.614754  25518.793122     -0.104532                    
P 19  17598.457737 -15989.939614  11348.130607    164.212079                    
V 19  14504.233703  -3910.020225 -27584.559192      0.050085                    
P 20   -886.631665 -26331.244872   4236.006643    513.635325                    
V 20   3872.425982   4827.316642  30609.609801     -0.010314                    
P 21  18460.311240  16542.684415  -9785.921577    161.252664                    
V 21 -12769.088333  -3770.653948 -27932.530539      0.000936                    
P 22 -14522.634310  17500.030325  13990.142827    267.684370                    
V 22 -16463.802361   5233.073953 -24541.429838      0.062354                    
P 23 -14663.623996   5255.124281 -21510.359295    -25.162347                    
V 23  -1095.170940 -27260.048813  -6017.427851     -0.022810                    
P 24 -21504.686854 -15048.009226  -5621.123383    231.121308                    
V 24   7404.661470    102.097284 -29813.960629     -0.076269                    
P 25 -15035.130543  -3544.429954  21342.080810    331.290622                    
V 25    292.282648 -27767.702184  -4082.687313      0.047282                    
P 26  -4903.308106  24548.656873   8311.817338    209.152824                    
V 26  -4055.515542 -10610.410571  28953.991102      0.025153                    
P 27  -3024.591318  17382.806063 -19941.217571    210.267625                    
V 27 -22268.179515  11305.892721  13759.920017      0.046598                    
P 28   9295.986040 -22598.699400 -10175.151603    348.094647                    
V 28    866.220561  13741.906629 -28090.730251     -0.075292                    
P 29 -23662.508947   2404.045427  11841.502134   -519.072351                    
V 29  12845.009241  -8072.793641  27115.880508     -0.038784                    
P 30  17602.318628  -5705.646443 -19056.866934   -529.782049                    
V 30  20028.878158  13988.159438  13994.491270     -0.012705                    
P 31  -7282.136212  13445.680649  21574.515407   -179.783285                    
V 31 -23752.001620 -14336.019414   1368.071944     -0.015372                    
P 32 -19827.333724  16462.486665   6146.078246   -139.331568                    
V 32  -8100.148107   1294.636496 -30509.846931     -0.090198                    
EOF
